{
  "norad_id": 63476,
  "name": "STARLINK-33718",
  "history": [
    {
      "epoch": "2026-03-28T20:56:30.068736",
      "apogee_km": 483.4848749089142,
      "perigee_km": 482.58729624585885,
      "latitude_deg": -10.467615497981406,
      "longitude_deg": -108.6332569597289,
      "semi_major_axis_km": 6861.173085577387,
      "eccentricity": 6.541e-05,
      "inclination_deg": 42.9965,
      "raan_deg": 151.1627,
      "arg_perigee_deg": 337.7747,
      "mean_anomaly_deg": 22.3077,
      "mean_motion_rev_day": 15.27584345
    }
  ]
}