{"fetched_at":"2026-03-29T16:36:15Z","count":15609,"tles":[{"name":"STARLINK-33718","line1":"1 63476U 25070S   26087.87257024  .00023103  00000+0  84633-3 0  9993","line2":"2 63476  42.9965 151.1627 0000654 337.7747  22.3077 15.27584345 55914","category":"Starlink"}]}